{
  "norad_id": 48438,
  "name": "STARLINK-2640",
  "history": [
    {
      "epoch": "2026-03-28T06:43:46.890048Z",
      "apogee_km": 476.3408921393029,
      "perigee_km": 474.1258828300679,
      "latitude_deg": 1.1064448514723292e-05,
      "longitude_deg": 165.13901874151765,
      "height_km": 476.6100853226782,
      "semi_major_axis_km": 6853.370387484685,
      "eccentricity": 0.0001616,
      "inclination_deg": 53.1621,
      "raan_deg": 91.7875,
      "arg_perigee_deg": 115.6076,
      "mean_anomaly_deg": 244.5092,
      "mean_motion_rev_day": 15.30193865
    },
    {
      "epoch": "2026-03-29T04:40:30.522144Z",
      "apogee_km": 476.1599510198066,
      "perigee_km": 474.2547212943564,
      "latitude_deg": 3.6085039954691666e-05,
      "longitude_deg": -169.18933094376433,
      "height_km": 475.9777142562199,
      "semi_major_axis_km": 6853.344336157082,
      "eccentricity": 0.000139,
      "inclination_deg": 53.1615,
      "raan_deg": 87.5422,
      "arg_perigee_deg": 82.2957,
      "mean_anomaly_deg": 277.8202,
      "mean_motion_rev_day": 15.3020259
    },
    {
      "epoch": "2026-03-30T05:45:22.266720Z",
      "apogee_km": 476.3515589987119,
      "perigee_km": 474.1281864736584,
      "latitude_deg": 3.245337760238134e-05,
      "longitude_deg": 168.70802291879966,
      "height_km": 476.1253911508982,
      "semi_major_axis_km": 6853.376872736185,
      "eccentricity": 0.00016221,
      "inclination_deg": 53.1612,
      "raan_deg": 82.6852,
      "arg_perigee_deg": 89.3719,
      "mean_anomaly_deg": 270.7468,
      "mean_motion_rev_day": 15.30191693
    },
    {
      "epoch": "2026-03-30T08:53:28.705632Z",
      "apogee_km": 476.27301932483806,
      "perigee_km": 474.22029385201586,
      "latitude_deg": -2.0173985234817183e-05,
      "longitude_deg": 120.9434001805105,
      "height_km": 476.2629633891383,
      "semi_major_axis_km": 6853.383656588427,
      "eccentricity": 0.00014976,
      "inclination_deg": 53.1626,
      "raan_deg": 82.0762,
      "arg_perigee_deg": 96.6163,
      "mean_anomaly_deg": 263.5008,
      "mean_motion_rev_day": 15.30189421
    },
    {
      "epoch": "2026-03-30T22:59:56.537664Z",
      "apogee_km": 476.1667148124079,
      "perigee_km": 474.21502410174435,
      "latitude_deg": -1.7663790305754108e-05,
      "longitude_deg": -93.98174799993781,
      "height_km": 476.180746250243,
      "semi_major_axis_km": 6853.327869457076,
      "eccentricity": 0.00014239,
      "inclination_deg": 53.1621,
      "raan_deg": 79.3464,
      "arg_perigee_deg": 95.3965,
      "mean_anomaly_deg": 264.7198,
      "mean_motion_rev_day": 15.30208105
    },
    {
      "epoch": "2026-03-31T16:14:31.557696Z",
      "apogee_km": 476.16659541517856,
      "perigee_km": 474.26958672597084,
      "latitude_deg": -1.0991394533665151e-05,
      "longitude_deg": 3.3275938117772923,
      "height_km": 476.234169775354,
      "semi_major_axis_km": 6853.355091070574,
      "eccentricity": 0.0001384,
      "inclination_deg": 53.1617,
      "raan_deg": 76.0098,
      "arg_perigee_deg": 97.1443,
      "mean_anomaly_deg": 262.9715,
      "mean_motion_rev_day": 15.30198988
    },
    {
      "epoch": "2026-04-01T18:53:26.946816Z",
      "apogee_km": 476.1881802801008,
      "perigee_km": 474.32953932292367,
      "latitude_deg": 2.2191228558041293e-05,
      "longitude_deg": -42.65479205099952,
      "height_km": 476.42186881848244,
      "semi_major_axis_km": 6853.395859801512,
      "eccentricity": 0.0001356,
      "inclination_deg": 53.1603,
      "raan_deg": 70.8526,
      "arg_perigee_deg": 106.5653,
      "mean_anomaly_deg": 253.5497,
      "mean_motion_rev_day": 15.30185334
    },
    {
      "epoch": "2026-04-02T15:16:08.480928Z",
      "apogee_km": 476.3713404257833,
      "perigee_km": 474.083276217807,
      "latitude_deg": 3.448047755433592e-05,
      "longitude_deg": 6.889855913352703,
      "height_km": 476.2058585059868,
      "semi_major_axis_km": 6853.364308321795,
      "eccentricity": 0.00016693,
      "inclination_deg": 53.1617,
      "raan_deg": 66.9072,
      "arg_perigee_deg": 94.0527,
      "mean_anomaly_deg": 266.0665,
      "mean_motion_rev_day": 15.30195901
    },
    {
      "epoch": "2026-04-03T14:46:56.529984Z",
      "apogee_km": 476.30057678601315,
      "perigee_km": 474.1719190552085,
      "latitude_deg": -2.1740694818023855e-05,
      "longitude_deg": 8.675950989898547,
      "height_km": 476.2702648420079,
      "semi_major_axis_km": 6853.37324792061,
      "eccentricity": 0.0001553,
      "inclination_deg": 53.1614,
      "raan_deg": 62.3592,
      "arg_perigee_deg": 97.3505,
      "mean_anomaly_deg": 262.7672,
      "mean_motion_rev_day": 15.30192907
    },
    {
      "epoch": "2026-04-04T04:53:25.518048Z",
      "apogee_km": 476.3006461679861,
      "perigee_km": 474.1888451168843,
      "latitude_deg": 1.3930289961946422e-05,
      "longitude_deg": 153.74839662502913,
      "height_km": 476.4046435352934,
      "semi_major_axis_km": 6853.381745642435,
      "eccentricity": 0.00015407,
      "inclination_deg": 53.161,
      "raan_deg": 59.6318,
      "arg_perigee_deg": 104.3688,
      "mean_anomaly_deg": 255.7484,
      "mean_motion_rev_day": 15.30190061
    },
    {
      "epoch": "2026-04-05T13:48:32.239296Z",
      "apogee_km": 476.2159784795331,
      "perigee_km": 474.2312452463375,
      "latitude_deg": -6.930906146450773e-06,
      "longitude_deg": 12.245357956039866,
      "height_km": 476.2603263507427,
      "semi_major_axis_km": 6853.360611862935,
      "eccentricity": 0.0001448,
      "inclination_deg": 53.1622,
      "raan_deg": 53.2587,
      "arg_perigee_deg": 98.0304,
      "mean_anomaly_deg": 262.0861,
      "mean_motion_rev_day": 15.30197139
    },
    {
      "epoch": "2026-04-06T03:55:01.292160Z",
      "apogee_km": 476.211246329558,
      "perigee_km": 474.249264351698,
      "latitude_deg": 5.316985517666962e-05,
      "longitude_deg": 157.3149501053304,
      "height_km": 476.33038731034725,
      "semi_major_axis_km": 6853.367255340628,
      "eccentricity": 0.00014314,
      "inclination_deg": 53.1639,
      "raan_deg": 50.5287,
      "arg_perigee_deg": 101.873,
      "mean_anomaly_deg": 258.2432,
      "mean_motion_rev_day": 15.30194914
    },
    {
      "epoch": "2026-04-07T03:25:50.262240Z",
      "apogee_km": 476.16470315702463,
      "perigee_km": 474.40501856002993,
      "latitude_deg": 2.5032825329476687e-05,
      "longitude_deg": 159.09571529580975,
      "height_km": 476.36703567282785,
      "semi_major_axis_km": 6853.421860858527,
      "eccentricity": 0.00012838,
      "inclination_deg": 53.1644,
      "raan_deg": 45.9792,
      "arg_perigee_deg": 102.0462,
      "mean_anomaly_deg": 258.0683,
      "mean_motion_rev_day": 15.30176626
    },
    {
      "epoch": "2026-04-07T20:40:25.082688Z",
      "apogee_km": 475.99939680644275,
      "perigee_km": 474.5245453478674,
      "latitude_deg": -2.2333066570120243e-05,
      "longitude_deg": -103.59745237527993,
      "height_km": 476.2453458650478,
      "semi_major_axis_km": 6853.398971077155,
      "eccentricity": 0.0001076,
      "inclination_deg": 53.1642,
      "raan_deg": 42.6393,
      "arg_perigee_deg": 96.5861,
      "mean_anomaly_deg": 263.5262,
      "mean_motion_rev_day": 15.30184292
    },
    {
      "epoch": "2026-04-08T06:04:43.893120Z",
      "apogee_km": 475.95982736393216,
      "perigee_km": 474.5129431748346,
      "latitude_deg": 2.409796787504681e-05,
      "longitude_deg": 113.11784535432172,
      "height_km": 476.1480022904172,
      "semi_major_axis_km": 6853.373385269383,
      "eccentricity": 0.00010556,
      "inclination_deg": 53.1628,
      "raan_deg": 40.8192,
      "arg_perigee_deg": 91.0262,
      "mean_anomaly_deg": 269.086,
      "mean_motion_rev_day": 15.30192861
    },
    {
      "epoch": "2026-04-09T21:16:03.493056Z",
      "apogee_km": 476.07500681475085,
      "perigee_km": 474.36303848029274,
      "latitude_deg": 9.170765512607017e-06,
      "longitude_deg": -123.9083629634193,
      "height_km": 476.2193906646275,
      "semi_major_axis_km": 6853.356022647521,
      "eccentricity": 0.0001249,
      "inclination_deg": 53.1626,
      "raan_deg": 33.2341,
      "arg_perigee_deg": 96.8421,
      "mean_anomaly_deg": 263.2722,
      "mean_motion_rev_day": 15.30198676
    },
    {
      "epoch": "2026-04-10T12:56:35.003328Z",
      "apogee_km": 475.8290436811758,
      "perigee_km": 474.5762531934415,
      "latitude_deg": -6.943772023976062e-06,
      "longitude_deg": -2.7153359905242263,
      "height_km": 476.15710806711456,
      "semi_major_axis_km": 6853.339648437308,
      "eccentricity": 9.14e-05,
      "inclination_deg": 53.1621,
      "raan_deg": 30.2022,
      "arg_perigee_deg": 95.0991,
      "mean_anomaly_deg": 265.0114,
      "mean_motion_rev_day": 15.3020416
    }
  ]
}